[{"OBJECT_NAME":"IRIDIUM 105","OBJECT_ID":"2017-003E","EPOCH":"2026-03-09T19:29:46.518144","MEAN_MOTION":14.34401202,"ECCENTRICITY":0.0002251,"INCLINATION":86.3921,"RA_OF_ASC_NODE":98.4421,"ARG_OF_PERICENTER":92.6468,"MEAN_ANOMALY":267.4986,"EPHEMERIS_TYPE":0,"CLASSIFICATION_TYPE":"U","NORAD_CAT_ID":41921,"ELEMENT_SET_NO":999,"REV_AT_EPOCH":48089,"BSTAR":7.7196279e-5,"MEAN_MOTION_DOT":2.37e-6,"MEAN_MOTION_DDOT":0},{"OBJECT_NAME":"YUNHAI-1 03","OBJECT_ID":"2022-115A","EPOCH":"2026-03-09T22:42:18.502272","MEAN_MOTION":14.32645592,"ECCENTRICITY":0.00045037,"INCLINATION":98.5539,"RA_OF_ASC_NODE":68.3628,"ARG_OF_PERICENTER":355.0463,"MEAN_ANOMALY":5.0676,"EPHEMERIS_TYPE":0,"CLASSIFICATION_TYPE":"U","NORAD_CAT_ID":53877,"ELEMENT_SET_NO":999,"REV_AT_EPOCH":18130,"BSTAR":0.00016609215,"MEAN_MOTION_DOT":4.08e-6,"MEAN_MOTION_DDOT":0}]
